[{"OBJECT_NAME":"LIZZIESAT-2 (LS-2)","OBJECT_ID":"2024-247G","EPOCH":"2026-03-09T11:47:37.199328","MEAN_MOTION":15.28222796,"ECCENTRICITY":0.00040927,"INCLINATION":44.9909,"RA_OF_ASC_NODE":117.0823,"ARG_OF_PERICENTER":327.5136,"MEAN_ANOMALY":32.5495,"EPHEMERIS_TYPE":0,"CLASSIFICATION_TYPE":"U","NORAD_CAT_ID":62383,"ELEMENT_SET_NO":999,"REV_AT_EPOCH":6771,"BSTAR":0.00034516624,"MEAN_MOTION_DOT":9.388e-5,"MEAN_MOTION_DDOT":0},{"OBJECT_NAME":"STARLINK-32928","OBJECT_ID":"2025-075S","EPOCH":"2026-03-09T21:49:10.229088","MEAN_MOTION":15.27605346,"ECCENTRICITY":0.00021424,"INCLINATION":43.0003,"RA_OF_ASC_NODE":269.1595,"ARG_OF_PERICENTER":255.3172,"MEAN_ANOMALY":104.7443,"EPHEMERIS_TYPE":0,"CLASSIFICATION_TYPE":"U","NORAD_CAT_ID":63564,"ELEMENT_SET_NO":999,"REV_AT_EPOCH":5197,"BSTAR":0.0011865793,"MEAN_MOTION_DOT":0.0003256,"MEAN_MOTION_DDOT":0}]
